#aV2022  6 27  0  0  0.00000000     288 DD+AD WGS84 FIT  NGA
## 2216  86400.00000000   300.00000000 59757 0.0000000000000
+   32     1  2  3  4  5  6  7  8  9 10 11 12 13 14 15 16 17
+         18 19 20 21 22 23 24 25 26 27 28 29 30 31 32  0  0
+          0  0  0  0  0  0  0  0  0  0  0  0  0  0  0  0  0
+          0  0  0  0  0  0  0  0  0  0  0  0  0  0  0  0  0
+          0  0  0  0  0  0  0  0  0  0  0  0  0  0  0  0  0
++         2  2  2  2  2  2  2  2  2  2  2  2  2  2  2  2  2
++         2  2  2  2  2  2  2  2  2  2  2  2  2  2  2  0  0
++         0  0  0  0  0  0  0  0  0  0  0  0  0  0  0  0  0
++         0  0  0  0  0  0  0  0  0  0  0  0  0  0  0  0  0
++         0  0  0  0  0  0  0  0  0  0  0  0  0  0  0  0  0
%c cc cc ccc ccc cccc cccc cccc cccc ccccc ccccc ccccc ccccc
%c cc cc ccc ccc cccc cccc cccc cccc ccccc ccccc ccccc ccccc
%f  0.0000000  0.000000000  0.00000000000  0.000000000000000
%f  0.0000000  0.000000000  0.00000000000  0.000000000000000
%i    0    0    0    0      0      0      0      0         0
%i    0    0    0    0      0      0      0      0         0
/*      NGA, ST. LOUIS,MO.                                  
/*   EPHEMERIS COMPUTED FROM 2 DAYS OF DATA                 
/*   EPOCHA v7 SMOOTHER                                     
/*   G2139 IERS2010 SATIGS SATAPC                           
*  2022  6 27 21 35  0.00000000
P  1  -7106.835484  18268.006639 -18057.690614    332.517663                    
V  1 -19775.942790  10569.147154  19130.300596     -0.077142                    
P  2  21434.545813 -15806.305150   -139.626016   -652.215882                    
V  2    746.692592   2611.038668 -31769.682606      0.004504                    
P  3   2698.478281  17039.869077 -20341.807624   -291.532301                    
V  3 -22931.424610 -11182.198586 -12367.811692     -0.111074                    
P  4  -1540.881153  26363.229730  -2325.840885   -152.340456                    
V  4  -2879.825198  -2964.171533 -31640.662252      0.042481                    
P  5  12584.430672 -10169.695618  20920.056227    -87.095144                    
V  5  24010.567157  12202.236246  -8299.389457     -0.013967                    
P  6  22571.381446  -3453.035588 -13575.104971    361.449652                    
V  6 -13862.768558  10395.125476 -25504.300607      0.158960                    
P  7   9745.762254  12323.970525  21846.149224    320.945760                    
V  7 -22776.272605  14100.166256   1754.699288     -0.009060                    
P  8  -5734.003769  23613.595137  10252.534797    -73.905163                    
V  8  -3481.392998 -13009.973779  28248.371934     -0.015463                    
P  9   6739.250234  24528.322311   7517.051186   -324.452714                    
V  9  -2322.524684   9800.321900 -29664.746489      0.035644                    
P 10 -24051.135578 -11540.247508  -1434.366563   -471.341880                    
V 10   -760.060303  -2811.752492  31792.051593     -0.142998                    
P 11  23530.069400 -12251.956768   -999.103404    -12.597575                    
V 11    236.415184   3033.231183 -31787.170145      0.017769                    
P 12   1916.435454 -16070.693680 -21347.551899   -237.780519                    
V 12  22734.366622  13503.707762  -8123.351553     -0.059000                    
P 13  12875.674368 -16266.213795  16327.742919    337.896639                    
V 13   -205.709865  21156.948400  21213.636985      0.070201                    
P 14  23197.061336  13040.873972   -440.991947   -111.966681                    
V 14  -1012.803315   2873.921667  31500.952365     -0.002157                    
P 15   3171.225583 -24229.950082   9593.856562    -49.842748                    
V 15   5809.155653  12137.920549  27855.355667      0.029947                    
P 16 -17813.429735   4114.637571  19154.429720   -511.891077                    
V 16 -20174.477962 -14346.742965 -15017.752328     -0.025086                    
P 17  12864.429030  11852.643264 -19537.501706    630.236793                    
V 17  -1753.242146  25692.667644  14173.517433      0.045587                    
P 18  -8863.520279 -12121.154848  21901.817991    129.788113                    
V 18  23786.793409 -14379.328221   1553.247828     -0.110893                    
P 19  14808.385055   2601.685588 -22160.593524    176.370478                    
V 19  -1921.190498  27391.823875   1734.390934      0.049849                    
P 20  21757.635700  -3760.578211  14596.875354    507.843640                    
V 20  16828.522251   8487.473798 -23129.228298     -0.031688                    
P 21 -15095.516228  19143.924878  -9009.733596    161.274664                    
V 21 -12018.593368   4885.314213  29226.469580     -0.000890                    
P 22 -15032.835010    754.094117 -21459.821883    282.968185                    
V 22   1029.750127 -28240.715898  -1852.574472      0.063576                    
P 23 -19235.397344 -16178.810683   8743.965709    -30.266415                    
V 23  10927.287137   2884.648548  29230.271765     -0.019271                    
P 24   9510.179835 -20267.016093 -14272.304458    210.810469                    
V 24  16064.392979  -8320.647251  23424.542591     -0.091163                    
P 25 -12724.456799 -18385.905432 -14825.993780    342.558892                    
V 25  17057.751756   6710.733024 -23152.143865      0.045537                    
P 26 -24011.450930  -1736.260026  11472.417445    214.969259                    
V 26 -12142.404674  -8634.848866 -26209.019068      0.022673                    
P 27 -12578.762826  12907.792118  19155.059770    218.542365                    
V 27  -2400.282278 -24811.775726  15354.416829      0.021556                    
P 28  23401.473227   8104.121369  -8763.484417    329.366452                    
V 28   8504.194272   8746.040739  29344.133762     -0.090468                    
P 29  -4687.404983 -24705.884856   8380.108501   -528.231829                    
V 29   2500.889474 -10626.087155 -29812.075297     -0.036739                    
P 30  18462.717112   4889.054662  18647.471908   -532.599272                    
V 30 -19249.799290  13565.605087  15322.213503     -0.010298                    
P 31 -23845.549910   4890.671575 -11296.969421   -183.524635                    
V 31  10896.168377  -9053.079012 -26779.891228     -0.015027                    
P 32 -14654.431128  -8710.358672 -20264.926584   -161.957413                    
V 32   -221.390244 -26043.159704  11085.968095     -0.096416                    
EOF
